[{"OBJECT_NAME":"STARLINK-32922","OBJECT_ID":"2025-027V","EPOCH":"2026-03-11T11:24:56.016576","MEAN_MOTION":15.27610752,"ECCENTRICITY":0.00013552,"INCLINATION":43.0011,"RA_OF_ASC_NODE":118.9342,"ARG_OF_PERICENTER":270.619,"MEAN_ANOMALY":89.4506,"EPHEMERIS_TYPE":0,"CLASSIFICATION_TYPE":"U","NORAD_CAT_ID":62926,"ELEMENT_SET_NO":999,"REV_AT_EPOCH":6181,"BSTAR":0.00085828103,"MEAN_MOTION_DOT":0.00023453,"MEAN_MOTION_DDOT":0},{"OBJECT_NAME":"STARLINK-32891","OBJECT_ID":"2025-027W","EPOCH":"2026-03-12T01:41:36.497184","MEAN_MOTION":15.2757604,"ECCENTRICITY":3.81e-5,"INCLINATION":42.9968,"RA_OF_ASC_NODE":115.6612,"ARG_OF_PERICENTER":335.386,"MEAN_ANOMALY":24.6973,"EPHEMERIS_TYPE":0,"CLASSIFICATION_TYPE":"U","NORAD_CAT_ID":62927,"ELEMENT_SET_NO":999,"REV_AT_EPOCH":6202,"BSTAR":0.00072379517,"MEAN_MOTION_DOT":0.00019706,"MEAN_MOTION_DDOT":0},{"OBJECT_NAME":"STARLINK-32728","OBJECT_ID":"2025-029A","EPOCH":"2026-03-11T19:10:48.954144","MEAN_MOTION":15.30201088,"ECCENTRICITY":6.041e-5,"INCLINATION":53.1609,"RA_OF_ASC_NODE":220.3127,"ARG_OF_PERICENTER":49.4933,"MEAN_ANOMALY":310.6121,"EPHEMERIS_TYPE":0,"CLASSIFICATION_TYPE":"U","NORAD_CAT_ID":62948,"ELEMENT_SET_NO":999,"REV_AT_EPOCH":6171,"BSTAR":0.00093314545,"MEAN_MOTION_DOT":0.00027381,"MEAN_MOTION_DDOT":0},{"OBJECT_NAME":"STARLINK-32857","OBJECT_ID":"2025-029B","EPOCH":"2026-03-11T14:05:51.697824","MEAN_MOTION":15.30222837,"ECCENTRICITY":9.967e-5,"INCLINATION":53.1586,"RA_OF_ASC_NODE":221.1307,"ARG_OF_PERICENTER":98.2143,"MEAN_ANOMALY":261.8971,"EPHEMERIS_TYPE":0,"CLASSIFICATION_TYPE":"U","NORAD_CAT_ID":62949,"ELEMENT_SET_NO":999,"REV_AT_EPOCH":6168,"BSTAR":0.0011576947,"MEAN_MOTION_DOT":0.0003411,"MEAN_MOTION_DDOT":0},{"OBJECT_NAME":"STARLINK-32850","OBJECT_ID":"2025-029C","EPOCH":"2026-03-11T19:41:58.236288","MEAN_MOTION":15.30204908,"ECCENTRICITY":0.0001107,"INCLINATION":53.1588,"RA_OF_ASC_NODE":222.575,"ARG_OF_PERICENTER":83.9147,"MEAN_ANOMALY":276.198,"EPHEMERIS_TYPE":0,"CLASSIFICATION_TYPE":"U","NORAD_CAT_ID":62950,"ELEMENT_SET_NO":999,"REV_AT_EPOCH":6165,"BSTAR":0.0011748089,"MEAN_MOTION_DOT":0.00034603,"MEAN_MOTION_DDOT":0},{"OBJECT_NAME":"STARLINK-32875","OBJECT_ID":"2025-029D","EPOCH":"2026-03-11T14:43:51.464640","MEAN_MOTION":15.30218465,"ECCENTRICITY":9.736e-5,"INCLINATION":53.1591,"RA_OF_ASC_NODE":221.2865,"ARG_OF_PERICENTER":109.6459,"MEAN_ANOMALY":250.4647,"EPHEMERIS_TYPE":0,"CLASSIFICATION_TYPE":"U","NORAD_CAT_ID":62951,"ELEMENT_SET_NO":999,"REV_AT_EPOCH":6165,"BSTAR":0.0012975694,"MEAN_MOTION_DOT":0.00038291,"MEAN_MOTION_DDOT":0},{"OBJECT_NAME":"STARLINK-32865","OBJECT_ID":"2025-029E","EPOCH":"2026-03-11T16:24:45.021888","MEAN_MOTION":15.30182115,"ECCENTRICITY":0.00012174,"INCLINATION":53.1603,"RA_OF_ASC_NODE":223.1408,"ARG_OF_PERICENTER":86.4148,"MEAN_ANOMALY":273.6992,"EPHEMERIS_TYPE":0,"CLASSIFICATION_TYPE":"U","NORAD_CAT_ID":62952,"ELEMENT_SET_NO":999,"REV_AT_EPOCH":6163,"BSTAR":0.00046112093,"MEAN_MOTION_DOT":0.00013315,"MEAN_MOTION_DDOT":0},{"OBJECT_NAME":"STARLINK-32884","OBJECT_ID":"2025-029F","EPOCH":"2026-03-12T03:11:41.324352","MEAN_MOTION":15.30181207,"ECCENTRICITY":4.893e-5,"INCLINATION":53.1596,"RA_OF_ASC_NODE":218.8394,"ARG_OF_PERICENTER":266.6941,"MEAN_ANOMALY":93.4004,"EPHEMERIS_TYPE":0,"CLASSIFICATION_TYPE":"U","NORAD_CAT_ID":62953,"ELEMENT_SET_NO":999,"REV_AT_EPOCH":6173,"BSTAR":0.0018988233,"MEAN_MOTION_DOT":0.00056272,"MEAN_MOTION_DDOT":0},{"OBJECT_NAME":"STARLINK-32874","OBJECT_ID":"2025-029G","EPOCH":"2026-03-11T17:27:38.871936","MEAN_MOTION":15.30195602,"ECCENTRICITY":0.0001135,"INCLINATION":53.1599,"RA_OF_ASC_NODE":220.5742,"ARG_OF_PERICENTER":87.3966,"MEAN_ANOMALY":272.7165,"EPHEMERIS_TYPE":0,"CLASSIFICATION_TYPE":"U","NORAD_CAT_ID":62954,"ELEMENT_SET_NO":999,"REV_AT_EPOCH":6167,"BSTAR":0.0015310283,"MEAN_MOTION_DOT":0.00045256,"MEAN_MOTION_DDOT":0},{"OBJECT_NAME":"STARLINK-32880","OBJECT_ID":"2025-029H","EPOCH":"2026-03-11T14:49:11.482464","MEAN_MOTION":15.3022459,"ECCENTRICITY":0.00013625,"INCLINATION":53.1603,"RA_OF_ASC_NODE":223.4353,"ARG_OF_PERICENTER":86.5645,"MEAN_ANOMALY":273.5512,"EPHEMERIS_TYPE":0,"CLASSIFICATION_TYPE":"U","NORAD_CAT_ID":62955,"ELEMENT_SET_NO":999,"REV_AT_EPOCH":6162,"BSTAR":0.00097015446,"MEAN_MOTION_DOT":0.00028506,"MEAN_MOTION_DDOT":0},{"OBJECT_NAME":"STARLINK-32815","OBJECT_ID":"2025-029J","EPOCH":"2026-03-11T19:18:25.080480","MEAN_MOTION":15.30210127,"ECCENTRICITY":0.00012125,"INCLINATION":53.1604,"RA_OF_ASC_NODE":220.3444,"ARG_OF_PERICENTER":72.1824,"MEAN_ANOMALY":287.9309,"EPHEMERIS_TYPE":0,"CLASSIFICATION_TYPE":"U","NORAD_CAT_ID":62956,"ELEMENT_SET_NO":999,"REV_AT_EPOCH":6168,"BSTAR":0.00097066677,"MEAN_MOTION_DOT":0.00028508,"MEAN_MOTION_DDOT":0},{"OBJECT_NAME":"STARLINK-32879","OBJECT_ID":"2025-029K","EPOCH":"2026-03-11T20:06:17.159904","MEAN_MOTION":15.30196224,"ECCENTRICITY":9.452e-5,"INCLINATION":53.1571,"RA_OF_ASC_NODE":222.681,"ARG_OF_PERICENTER":86.0164,"MEAN_ANOMALY":274.0945,"EPHEMERIS_TYPE":0,"CLASSIFICATION_TYPE":"U","NORAD_CAT_ID":62957,"ELEMENT_SET_NO":999,"REV_AT_EPOCH":6164,"BSTAR":0.00096841728,"MEAN_MOTION_DOT":0.00028429,"MEAN_MOTION_DDOT":0},{"OBJECT_NAME":"STARLINK-32885","OBJECT_ID":"2025-029L","EPOCH":"2026-03-12T03:10:12.731520","MEAN_MOTION":15.30207232,"ECCENTRICITY":0.0003232,"INCLINATION":53.1594,"RA_OF_ASC_NODE":218.8312,"ARG_OF_PERICENTER":86.4184,"MEAN_ANOMALY":273.7186,"EPHEMERIS_TYPE":0,"CLASSIFICATION_TYPE":"U","NORAD_CAT_ID":62958,"ELEMENT_SET_NO":999,"REV_AT_EPOCH":6172,"BSTAR":0.0010956762,"MEAN_MOTION_DOT":0.00032242,"MEAN_MOTION_DDOT":0},{"OBJECT_NAME":"STARLINK-32896","OBJECT_ID":"2025-029M","EPOCH":"2026-03-12T06:00:00.999648","MEAN_MOTION":15.3016225,"ECCENTRICITY":0.00010326,"INCLINATION":53.1564,"RA_OF_ASC_NODE":220.9013,"ARG_OF_PERICENTER":88.4567,"MEAN_ANOMALY":314.4207,"EPHEMERIS_TYPE":0,"CLASSIFICATION_TYPE":"U","NORAD_CAT_ID":62959,"ELEMENT_SET_NO":999,"REV_AT_EPOCH":581,"BSTAR":0.0023334774,"MEAN_MOTION_DOT":0.00069317,"MEAN_MOTION_DDOT":0},{"OBJECT_NAME":"STARLINK-32877","OBJECT_ID":"2025-029N","EPOCH":"2026-03-11T17:07:17.893056","MEAN_MOTION":15.30193181,"ECCENTRICITY":9.726e-5,"INCLINATION":53.156,"RA_OF_ASC_NODE":223.3234,"ARG_OF_PERICENTER":93.4094,"MEAN_ANOMALY":266.7018,"EPHEMERIS_TYPE":0,"CLASSIFICATION_TYPE":"U","NORAD_CAT_ID":62960,"ELEMENT_SET_NO":999,"REV_AT_EPOCH":6160,"BSTAR":0.00046517263,"MEAN_MOTION_DOT":0.0001344,"MEAN_MOTION_DDOT":0},{"OBJECT_NAME":"STARLINK-32889","OBJECT_ID":"2025-029P","EPOCH":"2026-03-11T14:03:44.711424","MEAN_MOTION":15.30194996,"ECCENTRICITY":0.00015646,"INCLINATION":53.1573,"RA_OF_ASC_NODE":223.9545,"ARG_OF_PERICENTER":129.144,"MEAN_ANOMALY":230.97,"EPHEMERIS_TYPE":0,"CLASSIFICATION_TYPE":"U","NORAD_CAT_ID":62961,"ELEMENT_SET_NO":999,"REV_AT_EPOCH":6160,"BSTAR":0.00088642006,"MEAN_MOTION_DOT":0.00025982,"MEAN_MOTION_DDOT":0},{"OBJECT_NAME":"STARLINK-32858","OBJECT_ID":"2025-029Q","EPOCH":"2026-03-12T02:45:08.075520","MEAN_MOTION":15.30192238,"ECCENTRICITY":0.00013637,"INCLINATION":53.1579,"RA_OF_ASC_NODE":220.8527,"ARG_OF_PERICENTER":73.2068,"MEAN_ANOMALY":286.9082,"EPHEMERIS_TYPE":0,"CLASSIFICATION_TYPE":"U","NORAD_CAT_ID":62962,"ELEMENT_SET_NO":999,"REV_AT_EPOCH":6167,"BSTAR":0.00073208291,"MEAN_MOTION_DOT":0.0002138,"MEAN_MOTION_DDOT":0},{"OBJECT_NAME":"STARLINK-32882","OBJECT_ID":"2025-029R","EPOCH":"2026-03-11T19:22:58.833696","MEAN_MOTION":15.30242594,"ECCENTRICITY":9.784e-5,"INCLINATION":53.1601,"RA_OF_ASC_NODE":220.3618,"ARG_OF_PERICENTER":41.4815,"MEAN_ANOMALY":318.626,"EPHEMERIS_TYPE":0,"CLASSIFICATION_TYPE":"U","NORAD_CAT_ID":62963,"ELEMENT_SET_NO":999,"REV_AT_EPOCH":6167,"BSTAR":0.0011127702,"MEAN_MOTION_DOT":0.00032787,"MEAN_MOTION_DDOT":0},{"OBJECT_NAME":"STARLINK-32887","OBJECT_ID":"2025-029S","EPOCH":"2026-03-11T19:15:22.572576","MEAN_MOTION":15.30202678,"ECCENTRICITY":9.022e-5,"INCLINATION":53.1629,"RA_OF_ASC_NODE":220.3304,"ARG_OF_PERICENTER":75.8173,"MEAN_ANOMALY":284.2928,"EPHEMERIS_TYPE":0,"CLASSIFICATION_TYPE":"U","NORAD_CAT_ID":62964,"ELEMENT_SET_NO":999,"REV_AT_EPOCH":6167,"BSTAR":0.00082201629,"MEAN_MOTION_DOT":0.00024067,"MEAN_MOTION_DDOT":0},{"OBJECT_NAME":"STARLINK-32836","OBJECT_ID":"2025-029T","EPOCH":"2026-03-12T02:59:33.540000","MEAN_MOTION":15.30208821,"ECCENTRICITY":0.00012128,"INCLINATION":53.1595,"RA_OF_ASC_NODE":218.7861,"ARG_OF_PERICENTER":91.4467,"MEAN_ANOMALY":268.6673,"EPHEMERIS_TYPE":0,"CLASSIFICATION_TYPE":"U","NORAD_CAT_ID":62965,"ELEMENT_SET_NO":999,"REV_AT_EPOCH":6172,"BSTAR":0.00054030401,"MEAN_MOTION_DOT":0.00015681,"MEAN_MOTION_DDOT":0},{"OBJECT_NAME":"STARLINK-32888","OBJECT_ID":"2025-029U","EPOCH":"2026-03-11T20:10:50.880288","MEAN_MOTION":15.30198625,"ECCENTRICITY":8.955e-5,"INCLINATION":53.1567,"RA_OF_ASC_NODE":222.7111,"ARG_OF_PERICENTER":67.0992,"MEAN_ANOMALY":293.0104,"EPHEMERIS_TYPE":0,"CLASSIFICATION_TYPE":"U","NORAD_CAT_ID":62966,"ELEMENT_SET_NO":999,"REV_AT_EPOCH":6164,"BSTAR":0.0013508704,"MEAN_MOTION_DOT":0.00039863,"MEAN_MOTION_DDOT":0},{"OBJECT_NAME":"STARLINK-32897","OBJECT_ID":"2025-029V","EPOCH":"2026-03-12T03:14:00.420576","MEAN_MOTION":15.30241853,"ECCENTRICITY":0.00010992,"INCLINATION":53.1597,"RA_OF_ASC_NODE":220.9735,"ARG_OF_PERICENTER":65.1756,"MEAN_ANOMALY":294.9359,"EPHEMERIS_TYPE":0,"CLASSIFICATION_TYPE":"U","NORAD_CAT_ID":62967,"ELEMENT_SET_NO":999,"REV_AT_EPOCH":6169,"BSTAR":0.001236712,"MEAN_MOTION_DOT":0.00036496,"MEAN_MOTION_DDOT":0},{"OBJECT_NAME":"STARLINK-32863","OBJECT_ID":"2025-029W","EPOCH":"2026-03-11T19:57:09.809856","MEAN_MOTION":15.30215636,"ECCENTRICITY":9.21e-5,"INCLINATION":53.1586,"RA_OF_ASC_NODE":222.6416,"ARG_OF_PERICENTER":10.7016,"MEAN_ANOMALY":349.4005,"EPHEMERIS_TYPE":0,"CLASSIFICATION_TYPE":"U","NORAD_CAT_ID":62968,"ELEMENT_SET_NO":999,"REV_AT_EPOCH":6078,"BSTAR":0.0008824851,"MEAN_MOTION_DOT":0.00025881,"MEAN_MOTION_DDOT":0}]
